[{"OBJECT_NAME":"STARLINK-1882","OBJECT_ID":"2020-074AX","EPOCH":"2026-03-10T00:00:02.999808","MEAN_MOTION":15.62047673,"ECCENTRICITY":0.00063164,"INCLINATION":53.053,"RA_OF_ASC_NODE":273.3369,"ARG_OF_PERICENTER":138.0359,"MEAN_ANOMALY":141.9352,"EPHEMERIS_TYPE":0,"CLASSIFICATION_TYPE":"U","NORAD_CAT_ID":46784,"ELEMENT_SET_NO":999,"REV_AT_EPOCH":577,"BSTAR":0.0024889252,"MEAN_MOTION_DOT":0.00227653,"MEAN_MOTION_DDOT":0},{"OBJECT_NAME":"COSMOS 1263","OBJECT_ID":"1981-033A","EPOCH":"2026-03-09T22:16:18.723072","MEAN_MOTION":14.29193035,"ECCENTRICITY":0.05805392,"INCLINATION":82.8561,"RA_OF_ASC_NODE":296.4467,"ARG_OF_PERICENTER":35.3286,"MEAN_ANOMALY":328.4954,"EPHEMERIS_TYPE":0,"CLASSIFICATION_TYPE":"U","NORAD_CAT_ID":12388,"ELEMENT_SET_NO":999,"REV_AT_EPOCH":25724,"BSTAR":0.00036478764,"MEAN_MOTION_DOT":6.481e-5,"MEAN_MOTION_DDOT":0}]
